# From MPEC 2022-S20
C/1995 O1 (Hale-Bopp),e,89.6362,281.9514,130.4156,179.7632,0.0004089,0.99492446,0.0000,03/30.4289/1997,2000,g -2.0,4.0
# From NK 1615
P/1996 R2 (Lagerkvist),e,2.5990,40.0381,333.5097,3.771669,0.1345562,0.31408978,338.6394,01/08.0/2026,2000,g 11.5,4.0
# From MPC 73460
C/1997 BA6 (Spacewatch),e,72.6908,317.7807,286.0812,2934,0.0000062,0.99881966,0.0000,11/15.8735/1999,2000,g 10.0,2.0
# From MPC 75703
P/1998 VS24 (LINEAR),e,5.0301,159.0329,244.9339,4.519593,0.1025782,0.24344382,297.6159,01/08.0/2026,2000,g 13.0,2.0
# From MPC 73461
C/1999 F1 (Catalina),e,91.8644,19.9544,255.3242,20484,0.0000003,0.99971624,0.0000,01/31.1806/2002,2000,g  9.5,2.0
# From MPC186628
C/1999 J2 (Skiff),h,04/09.3407/2000,86.4033,50.2724,126.9689,1.000778,7.071620,2000,2.0,4.0
# From NK 731
P/1999 RO28 (LONEOS),e,7.5672,137.8395,231.3602,3.425273,0.1554753,0.67218773,10.8355,01/08.0/2026,2000,g 20.0,2.0
# From MPC 43758
C/1999 S2 (McNaught-Watson),h,11/07.0384/1997,65.6289,74.4448,223.4752,1.002321,6.503527,2000,2.0,4.0
# From MPC 75704
P/1999 XN120 (Catalina),e,5.0300,285.2384,161.4797,4.190140,0.1149109,0.21289491,2.0770,01/08.0/2026,2000,g 13.5,2.0
# From NK 744
P/2000 R2 (LINEAR),e,11.6793,160.2682,176.5820,3.468277,0.1525926,0.53053719,5.6007,01/08.0/2026,2000,g 18.0,4.0
# From MPC 43019
P/2001 H5 (NEAT),e,8.3727,328.6839,224.5808,6.093307,0.0655276,0.59965479,245.4917,01/08.0/2026,2000,g 12.0,4.0
# From MPC 46619
C/2001 M10 (NEAT),e,27.9944,293.9617,5.6083,26.72175,0.0071352,0.79927374,64.1102,01/08.0/2026,2000,g  8.0,4.0
# From MPEC 2015-N31
C/2002 A1 (LINEAR),e,14.0795,81.0450,18.7190,16.04080,0.0153414,0.70976845,135.0743,01/08.0/2026,2000,g 12.5,2.0
# From MPC 89006
C/2002 A2 (LINEAR),e,14.0335,81.0118,19.1143,15.89581,0.0155518,0.70744026,136.8170,01/08.0/2026,2000,g 11.0,2.0
# From MPC 45962
C/2002 B1 (LINEAR),e,51.0293,58.2658,76.0849,9.874423,0.0317641,0.77051695,275.7483,01/08.0/2026,2000,g 11.5,4.0
# From MPC188408
C/2002 CE10 (LINEAR),e,145.3743,147.5614,126.2401,9.765717,0.0322959,0.78944368,265.7717,01/08.0/2026,2000,g 13.0,2.0
# From MPEC 2023-UR6
P/2002 EJ57 (LINEAR),e,4.9910,330.2198,167.2974,6.454525,0.0601046,0.59416701,165.7398,01/08.0/2026,2000,g 12.5,4.0
# From MPEC 2015-N31
C/2002 L9 (NEAT),h,04/02.7093/2004,68.2218,110.4979,231.5842,1.000485,7.073458,2000,8.5,2.0
# From MPC 75007
C/2002 VQ94 (LINEAR),e,70.6211,35.0537,99.8140,187.4866,0.0003839,0.96399234,2.7908,01/08.0/2026,2000,g  9.5,2.0
# From MPC186628
C/2003 A2 (Gleason),e,8.0711,154.4593,346.5468,7967,0.0000014,0.99857380,0.0000,11/08.4092/2003,2000,g  3.5,4.0
# From MPC 51182
C/2003 E1 (NEAT),e,33.4706,137.1184,103.9259,13.77307,0.0192823,0.76203661,154.7327,01/08.0/2026,2000,g 12.5,2.0
# From MPC 50354
P/2003 F2 (NEAT),e,11.5823,358.9613,193.0986,6.553999,0.0587414,0.53629151,132.1971,01/08.0/2026,2000,g 16.5,2.0
# From unp
P/2003 L1 (Scotti),e,9.0436,225.8351,355.0383,6.693962,0.0569088,0.25185386,114.2169,01/08.0/2026,2000,g  9.5,4.0
# From MPC105235
P/2003 T12 (SOHO),e,11.0206,174.5698,219.8044,2.584252,0.2372476,0.77004531,131.2766,01/08.0/2026,2000,g 17.0,4.0
# From MPC 57131
C/2004 B1 (LINEAR),h,02/07.9166/2006,113.9129,273.3351,328.1231,1.000959,1.602067,2000,10.5,2.0
# From MPC 51368
C/2004 C1 (Larsen),e,28.8625,151.9549,315.9683,11.62433,0.0248686,0.62580256,359.9917,03/19.0/2003,2000,g 13.5,2.0
# From MPEC 2022-YN2
P/2004 FY140 (LINEAR),e,2.1629,327.2625,254.3218,4.968459,0.0889962,0.19289400,323.4620,01/08.0/2026,2000,g 12.5,2.0
# From MPC 53304
P/2004 R3 (LINEAR-NEAT),e,12.8053,305.1238,37.0423,4.744372,0.0953753,0.25490282,150.3410,01/08.0/2026,2000,g 14.5,4.0
# From MPC 53465
C/2004 T3 (Siding Spring),e,71.7745,50.3510,259.8486,44405,0.0000001,0.99979941,0.0000,04/04.4694/2003,2000,g  2.5,4.0
# From MPC 75705
P/2004 V5 (LINEAR-Hill),e,19.3302,47.7354,87.1503,8.054408,0.0431175,0.44954522,335.2276,01/08.0/2026,2000,g  8.0,4.0
# From unp
P/2004 V5-A (LINEAR-Hill),e,19.3336,47.7624,87.1152,8.055245,0.0431108,0.44962958,335.2419,01/08.0/2026,2000,g  8.0,4.0
# From MPC 75705
P/2004 V5-B (LINEAR-Hill),e,19.3304,47.7359,87.1548,8.054613,0.0431159,0.44955951,335.1865,01/08.0/2026,2000,g  8.0,4.0
# From MPC 54164
P/2005 E1 (Tubbiolo),e,4.2606,335.4851,193.9668,7.073575,0.0523897,0.37756976,43.6156,01/08.0/2026,2000,g 10.0,4.0
# From MPC 74246
P/2005 L1 (McNaught),e,10.0602,124.0146,166.2866,3.846123,0.1306680,0.28071321,182.3612,01/08.0/2026,2000,g  9.5,4.0
# From MPC 87062
C/2005 L3 (McNaught),e,139.3141,288.7781,46.9663,4023,0.0000039,0.99861401,0.0000,01/14.3853/2008,2000,g  4.0,4.0
# From MPC 75706
P/2005 S2 (Skiff),e,3.1394,161.3264,230.0743,7.981289,0.0437114,0.19820606,311.2548,01/08.0/2026,2000,g  7.5,4.0
# From MPC 73461
P/2005 T3 (Read),e,6.2335,27.6188,7.1749,7.567680,0.0473435,0.17367647,349.3442,01/08.0/2026,2000,g  9.0,4.0
# From MPC 75707
P/2006 HR30 (Siding Spring),e,31.9659,309.7459,117.5284,7.793821,0.0452979,0.84353142,314.4543,01/08.0/2026,2000,g 11.0,4.0
# From MPEC 2022-L66
C/2006 S3 (LONEOS),h,04/16.5796/2012,166.0456,38.5373,140.1412,1.000682,5.118168,2000,2.0,4.0
# From MPC 84315
C/2007 D1 (LINEAR),e,41.5181,170.9866,339.8120,1303,0.0000210,0.99329291,0.0000,06/16.0740/2007,2000,g  3.5,4.0
# From MPEC 2024-GJ3
P/2007 K2 (Gibbs),e,7.5874,188.3079,347.0401,7.401057,0.0489512,0.68698828,341.2474,01/08.0/2026,2000,g 14.0,4.0
# From MPC 73462
P/2007 S1 (Zhao),e,5.9625,141.3211,245.2851,3.819242,0.1320500,0.33766519,157.1320,01/08.0/2026,2000,g 13.0,4.0
# From MPEC 2024-GJ3
C/2007 S2 (Lemmon),e,16.9208,296.1346,210.1495,12.49216,0.0223228,0.55742924,141.3137,01/08.0/2026,2000,g  6.5,4.0
# From MPEC 2024-GJ3
C/2008 E1 (Catalina),e,34.8637,188.8790,270.4220,10.76362,0.0279104,0.55294004,177.0839,01/08.0/2026,2000,g  7.0,4.0
# From MPC 95207
C/2008 S3 (Boattini),h,06/09.0906/2011,162.7431,55.0220,40.1971,1.001834,8.056467,2000,4.0,4.0
# From MPC 75710
P/2008 Y3 (McNaught),e,38.7803,262.8275,238.1910,8.033900,0.0432827,0.44861786,269.2551,01/08.0/2026,2000,g  8.5,4.0
# From MPC 75710
P/2009 B1 (Boattini),e,22.2597,297.1089,129.0261,6.721716,0.0565567,0.63580307,350.1875,01/08.0/2026,2000,g 13.0,4.0
# From MPC 95208
C/2009 F4 (McNaught),e,79.2012,53.5038,260.5033,24634,0.0000003,0.99977764,0.0000,12/25.5840/2011,2000,g  3.0,4.0
# From MPC103843
C/2009 P1 (Garradd),e,106.2284,325.8540,90.4520,10612,0.0000009,0.99985501,0.0000,12/24.3794/2011,2000,g  4.0,4.0
# From MPC 68902
P/2009 Q5 (McNaught),e,40.9480,160.1833,209.2005,7.427247,0.0486925,0.60910139,289.8565,01/08.0/2026,2000,g 10.0,4.0
# From MPC105235
P/2009 WX51 (Catalina),e,9.5982,31.5215,118.2945,3.082849,0.1820856,0.73975005,342.3280,01/08.0/2026,2000,g 19.0,2.0
# From MPC 74247
P/2009 Y2 (Kowalski),e,29.9725,262.0778,172.2754,6.534455,0.0590052,0.63729482,340.6575,01/08.0/2026,2000,g 13.0,4.0
# From MPC 75008
P/2010 C1 (Scotti),e,9.1158,141.5833,2.8766,7.133446,0.0517315,0.26446353,308.9526,01/08.0/2026,2000,g  9.5,4.0
# From MPC 75008
P/2010 D2 (WISE),e,57.1396,319.8797,120.0582,6.713196,0.0566644,0.45154798,328.9625,01/08.0/2026,2000,g 16.0,4.0
# From MPC 72851
P/2010 H2 (Vales),e,14.2782,64.1895,128.0743,3.835293,0.1312219,0.19797584,39.9175,01/08.0/2026,2000,g  6.0,4.0
# From MPC 70361
P/2010 H3 (SOHO),e,23.1402,77.1681,26.0883,3.034588,0.1864466,0.98558081,0.0000,05/25.2480/2026,2000,g 20.0,2.0
# From MPEC 2024-GJ3
P/2010 H4 (Scotti),e,2.3177,44.7489,179.0796,6.620081,0.0578641,0.26741639,331.1541,01/08.0/2026,2000,g 10.5,4.0
# From MPC 74637
P/2010 H5 (Scotti),e,14.0525,24.3864,175.4071,7.168058,0.0513573,0.15646933,296.6713,01/08.0/2026,2000,g 13.0,2.0
# From MPC 84315
P/2010 JC81 (WISE),e,38.7400,30.8332,12.5230,8.103128,0.0427292,0.77786019,229.0607,01/08.0/2026,2000,g  9.0,4.0
# From MPC 83518
C/2010 L3 (Catalina),e,102.6454,38.3216,121.7537,37770,0.0000001,0.99973873,0.0000,11/12.5099/2010,2000,g  4.5,4.0
# From MPC115879
C/2010 S1 (LINEAR),h,05/20.3941/2013,125.4397,93.6710,118.7205,1.000700,5.908961,2000,3.5,4.0
# From MPC 74248
P/2010 T2 (PANSTARRS),e,7.8527,57.6990,349.8537,5.568762,0.0750008,0.32445911,51.5555,01/08.0/2026,2000,g 11.5,4.0
# From MPEC 2023-J95
C/2010 U3 (Boattini),h,02/28.8245/2019,55.5291,42.9946,88.1099,1.000202,8.440891,2000,1.0,4.0
# From MPC 79021
P/2010 UH55 (Spacewatch),e,8.0378,232.7957,225.3750,6.645366,0.0575342,0.56466812,309.5758,01/08.0/2026,2000,g 11.0,4.0
# From MPC 84021
P/2011 C2 (Gibbs),e,10.8983,11.9673,160.3186,7.406111,0.0489011,0.27170152,251.5916,01/08.0/2026,2000,g  9.0,4.0
# From MPC 89309
C/2011 F1 (LINEAR),e,56.3832,85.1966,192.6038,3782,0.0000042,0.99951420,0.0000,01/01.7795/2013,2000,g  5.0,4.0
# From MPC 79866
P/2011 FR143 (Lemmon),e,15.9611,190.8423,349.6072,6.886457,0.0545394,0.45296213,298.9456,01/08.0/2026,2000,g 14.0,2.0
# From MPC106343
C/2011 J2 (LINEAR),h,12/20.4202/2013,122.7919,164.0518,85.4779,1.000298,3.459900,2000,5.5,3.6
# From MPC 82317
P/2011 JB15 (Spacewatch-Boattini),e,19.1272,153.5834,110.6120,7.382375,0.0491371,0.31519194,252.2999,01/08.0/2026,2000,g  9.0,4.0
# From MPEC 2023-J95
C/2011 KP36 (Spacewatch),e,18.9564,173.4035,180.9703,39.38630,0.0039874,0.87494407,14.0162,01/08.0/2026,2000,g  4.5,4.0
# From MPC 87913
P/2011 N1 (ASH),e,35.7829,77.6249,330.5202,6.231411,0.0633614,0.54532572,314.2455,01/08.0/2026,2000,g 11.5,4.0
# From MPEC 2022-ED3
P/2011 P1 (McNaught),e,5.6502,4.2437,349.1361,7.463931,0.0483340,0.32603086,272.5680,01/08.0/2026,2000,g  9.0,4.0
# From MPC107047
C/2011 P2 (PANSTARRS),e,8.9825,203.9269,76.2120,9.765854,0.0322953,0.36526885,181.7346,01/08.0/2026,2000,g  8.5,4.0
# From MPEC 2022-HC2
P/2011 S1 (Gibbs),e,2.6876,218.8978,193.0346,8.600582,0.0390762,0.20047247,162.3575,01/08.0/2026,2000,g  8.0,4.0
# From MPEC 2023-UR6
P/2011 V1 (Boattini),e,7.3823,46.4908,269.5912,3.858211,0.1300544,0.54838247,346.2761,01/08.0/2026,2000,g 15.5,4.0
# From MPC 82718
P/2011 W1 (PANSTARRS),e,3.7158,161.7924,283.1038,4.675680,0.0974848,0.28829712,139.2453,01/08.0/2026,2000,g 11.5,4.0
# From MPC 79342
